{
    "links": {
        "self": "http://www.neowsapp.com/rest/v1/neo/3485807?api_key=iIulBulltgU6a56xZRHN4H3l9WmuAYTsLGpBGhQ2"
    },
    "id": "3485807",
    "neo_reference_id": "3485807",
    "name": "(2010 AM60)",
    "designation": "2010 AM60",
    "nasa_jpl_url": "http://ssd.jpl.nasa.gov/sbdb.cgi?sstr=3485807",
    "absolute_magnitude_h": 23.8,
    "estimated_diameter": {
        "kilometers": {
            "estimated_diameter_min": 0.046190746,
            "estimated_diameter_max": 0.1032856481
        },
        "meters": {
            "estimated_diameter_min": 46.1907460282,
            "estimated_diameter_max": 103.2856480504
        },
        "miles": {
            "estimated_diameter_min": 0.0287015901,
            "estimated_diameter_max": 0.0641787064
        },
        "feet": {
            "estimated_diameter_min": 151.544447199,
            "estimated_diameter_max": 338.8636855496
        }
    },
    "is_potentially_hazardous_asteroid": false,
    "close_approach_data": [
        {
            "close_approach_date": "2010-01-06",
            "close_approach_date_full": "2010-Jan-06 11:56",
            "epoch_date_close_approach": 1262778960000,
            "relative_velocity": {
                "kilometers_per_second": "9.4250548761",
                "kilometers_per_hour": "33930.1975540529",
                "miles_per_hour": "21082.9052524058"
            },
            "miss_distance": {
                "astronomical": "0.0799913576",
                "lunar": "31.1166381064",
                "kilometers": "11966536.715368312",
                "miles": "7435661.1187422256"
            },
            "orbiting_body": "Earth"
        },
        {
            "close_approach_date": "2200-02-02",
            "close_approach_date_full": "2200-Feb-02 17:03",
            "epoch_date_close_approach": 7260944580000,
            "relative_velocity": {
                "kilometers_per_second": "17.2166073565",
                "kilometers_per_hour": "61979.7864834641",
                "miles_per_hour": "38511.8289957947"
            },
            "miss_distance": {
                "astronomical": "0.3620390168",
                "lunar": "140.8331775352",
                "kilometers": "54160265.770174216",
                "miles": "33653628.6100915408"
            },
            "orbiting_body": "Earth"
        }
    ],
    "orbital_data": {
        "orbit_id": "10",
        "orbit_determination_date": "2017-04-06 08:58:35",
        "first_observation_date": "2010-01-15",
        "last_observation_date": "2010-02-07",
        "data_arc_in_days": 23,
        "observations_used": 41,
        "orbit_uncertainty": "7",
        "minimum_orbit_intersection": ".0674706",
        "jupiter_tisserand_invariant": "3.258",
        "epoch_osculation": "2459000.5",
        "eccentricity": ".5716243145337423",
        "semi_major_axis": "2.404940711055511",
        "inclination": "11.2488729141831",
        "ascending_node_longitude": "113.9324608862623",
        "orbital_period": "1362.244264812254",
        "perihelion_distance": "1.030218125604114",
        "perihelion_argument": "336.0021343756159",
        "aphelion_distance": "3.779663296506909",
        "perihelion_time": "2459290.037679783309",
        "mean_anomaly": "283.4839393973467",
        "mean_motion": ".2642697857491921",
        "equinox": "J2000",
        "orbit_class": {
            "orbit_class_type": "AMO",
            "orbit_class_description": "Near-Earth asteroid orbits similar to that of 1221 Amor",
            "orbit_class_range": "1.017 AU < q (perihelion) < 1.3 AU"
        }
    },
    "is_sentry_object": false
}